STARLINK-30290          
1 57858U 23141U   26068.90472351 -.00000346  00000+0  44157-6 0  9997
2 57858  53.1595 282.9306 0001198  98.1597 261.9539 15.30188001140367
ARCSTONE                
1 64540U 25135N   26068.88991918  .00026427  00000+0  94900-3 0  9995
2 64540  97.4495 185.9194 0004120 166.7863 193.3485 15.28638458 39847
